QIANFAN-73              
1 63159U 25046A   25284.90938241  .00000139  00000+0  19662-3 0  9997
2 63159  88.9800 326.4231 0013051 306.8997  53.0957 13.50968883 39060
QIANFAN-74              
1 63160U 25046B   25284.96698645  .00000141  00000+0  19917-3 0  9992
2 63160  88.9795 326.3055 0002203 100.8294 259.3106 13.50970833 39130
QIANFAN-75              
1 63161U 25046C   25284.95460110  .00000034  00000+0  34757-4 0  9997
2 63161  88.9802 326.5394 0014191 309.8054  50.1847 13.50978037 39001
QIANFAN-76              
1 63162U 25046D   25284.95053931 -.00000064  00000+0 -11779-3 0  9990
2 63162  88.9796 326.5205 0011834 311.3055  48.7076 13.50971285 39011
QIANFAN-77              
1 63163U 25046E   25284.97460407  .00000343  00000+0  24017-3 0  9990
2 63163  88.9798 325.0326 0012463 273.0800  86.8950 13.96068457 39835
QIANFAN-78              
1 63164U 25046F   25284.91764777  .00000141  00000+0  19989-3 0  9990
2 63164  88.9796 326.3888 0013201 313.5511  46.4543 13.50971140 39080
QIANFAN-79              
1 63165U 25046G   25284.94632522  .00000146  00000+0  20820-3 0  9997
2 63165  88.9805 326.4910 0012851 311.5921  48.4128 13.50970346 39035
QIANFAN-80              
1 63166U 25046H   25284.96290042  .00000163  00000+0  23458-3 0  9996
2 63166  88.9801 326.1978 0011924 317.0770  42.9449 13.50970851 39199
